OBJECT_NAME,OBJECT_ID,EPOCH,MEAN_MOTION,ECCENTRICITY,INCLINATION,RA_OF_ASC_NODE,ARG_OF_PERICENTER,MEAN_ANOMALY,EPHEMERIS_TYPE,CLASSIFICATION_TYPE,NORAD_CAT_ID,ELEMENT_SET_NO,REV_AT_EPOCH,BSTAR,MEAN_MOTION_DOT,MEAN_MOTION_DDOT
FENGYUN 1C DEB,1999-025BDM,2026-03-21T04:26:42.404064,11.83245894,.11095789,98.7195,249.6178,93.7798,329.8005,0,U,31019,999,56345,.23504401E-2,.846E-5,0
FENGYUN 1C DEB,1999-025BDP,2026-03-21T01:31:32.459232,14.76933904,.02622069,98.3501,198.9469,288.2431,69.0405,0,U,31021,999,74883,.3978496E-3,.4889E-4,0
FENGYUN 1C DEB,1999-025BDQ,2026-03-20T22:51:56.138112,13.90570776,.01087861,99.5083,330.9020,219.2408,140.0828,0,U,31022,999,63373,.28895613E-3,.33E-5,0
FENGYUN 1C DEB,1999-025BDR,2026-03-14T04:28:23.492064,14.06749425,.00817355,98.8244,61.3449,325.4418,34.1454,0,U,31023,999,70787,.25297281E-3,.39E-5,0
FENGYUN 1C DEB,1999-025BDS,2026-03-14T17:19:15.330144,14.21019020,.00734519,99.0424,354.2018,221.8693,137.6851,0,U,31024,999,98010,.27742041E-3,.571E-5,0
FENGYUN 1C DEB,1999-025BDT,2026-03-16T05:57:43.113888,14.20847805,.01730259,98.5872,67.8066,101.3723,260.6948,0,U,31025,999,65693,.46366023E-3,.1123E-4,0
FENGYUN 1C DEB,1999-025BDU,2026-03-21T14:41:12.154272,13.83452873,.0133479,98.7881,14.6727,275.5938,210.4968,0,U,31026,999,69393,.16851317E-3,.157E-5,0
FENGYUN 1C DEB,1999-025BDW,2026-03-11T00:36:41.095296,13.89141465,.01662091,98.7120,1.1743,52.4953,309.1185,0,U,31028,999,63229,.37645882E-3,.471E-5,0
FENGYUN 1C DEB,1999-025BDX,2026-03-20T05:00:38.829600,14.34554564,.00892191,98.8524,343.5233,146.8892,5.0479,0,U,31029,999,99193,.22475495E-3,.617E-5,0
FENGYUN 1C DEB,1999-025BDY,2026-03-21T10:21:38.637216,14.24123337,.00290685,98.7527,146.9951,155.0137,227.5705,0,U,31030,999,98109,.78648531E-3,.1774E-4,0
FENGYUN 1C DEB,1999-025BDZ,2026-03-14T00:43:48.155808,14.21187937,.00274103,99.0740,357.5807,288.9245,135.5689,0,U,31031,999,98151,.44502108E-3,.925E-5,0
FENGYUN 1C DEB,1999-025BEE,2026-03-20T06:51:18.807840,14.49293192,.0137446,98.9162,196.2721,332.0540,55.9603,0,U,31036,999,58720,.11607E-3,.441E-5,0
FENGYUN 1C DEB,1999-025BEJ,2026-03-21T10:48:03.760992,14.17838169,.00611975,98.6685,72.8646,271.3443,242.0144,0,U,31040,999,98105,.30694099E-3,.595E-5,0
FENGYUN 1C DEB,1999-025BEK,2026-03-21T13:02:02.033376,14.18807706,.00858279,99.1914,117.7900,43.4726,317.3173,0,U,31041,999,96890,.22104377E-2,.4723E-4,0
FENGYUN 1C DEB,1999-025BEM,2026-03-21T13:11:54.847968,14.08609414,.00425879,98.7589,100.5458,84.6780,66.5625,0,U,31043,999,97378,.35993974E-3,.582E-5,0
FENGYUN 1C DEB,1999-025BER,2026-03-21T11:04:10.369632,14.14028026,.00245077,98.7058,80.2960,258.2428,255.6753,0,U,31047,999,97754,.38497022E-3,.691E-5,0
FENGYUN 1C DEB,1999-025BET,2026-03-13T07:08:11.141088,14.04368778,.00502783,98.8037,85.2208,235.6323,124.0083,0,U,31049,999,62386,.28632252E-3,.418E-5,0
FENGYUN 1C DEB,1999-025BEX,2026-03-16T03:38:38.585472,13.76311365,.03070737,98.7975,195.7025,204.7440,153.8716,0,U,31053,999,94761,.24779424E-2,.3379E-4,0
FENGYUN 1C DEB,1999-025BEY,2026-03-20T18:48:57.956832,14.12237621,.00094424,98.6879,94.8107,197.5572,337.2356,0,U,31054,999,98147,.15038794E-3,.234E-5,0
FENGYUN 1C DEB,1999-025BEZ,2026-03-20T14:15:22.756032,14.10505931,.0024378,98.7475,113.2380,358.0442,155.3315,0,U,31055,999,97501,.25714E-3,.416E-5,0
FENGYUN 1C DEB,1999-025BFB,2026-03-20T09:00:08.080992,14.81066248,.01334113,99.2403,138.5945,307.2236,51.6858,0,U,31057,999,63397,.46712401E-3,.4146E-4,0
FENGYUN 1C DEB,1999-025BFC,2026-03-20T09:10:12.614880,14.78675958,.00903081,99.5782,51.8099,165.1085,195.2813,0,U,31058,999,935,.56631966E-3,.4371E-4,0
