FENGYUN 1C DEB          
1 31019U 99025BDM 26080.18521301  .00000846  00000+0  23504-2 0  9999
2 31019  98.7195 249.6178 1109578  93.7798 329.8005 11.83245894563451
FENGYUN 1C DEB          
1 31021U 99025BDP 26080.06357013  .00004889  00000+0  39785-3 0  9996
2 31021  98.3501 198.9469 0262206 288.2431  69.0405 14.76933904748837
FENGYUN 1C DEB          
1 31022U 99025BDQ 26079.95273308  .00000330  00000+0  28896-3 0  9995
2 31022  99.5083 330.9020 0108786 219.2408 140.0828 13.90570776633737
FENGYUN 1C DEB          
1 31023U 99025BDR 26073.18638301  .00000390  00000+0  25297-3 0  9991
2 31023  98.8244  61.3449 0081735 325.4418  34.1454 14.06749425707876
FENGYUN 1C DEB          
1 31024U 99025BDS 26073.72170521  .00000571  00000+0  27742-3 0  9995
2 31024  99.0424 354.2018 0073451 221.8693 137.6851 14.21019020980103
FENGYUN 1C DEB          
1 31025U 99025BDT 26075.24841567  .00001123  00000+0  46366-3 0  9997
2 31025  98.5872  67.8066 0173025 101.3723 260.6948 14.20847805656933
FENGYUN 1C DEB          
1 31026U 99025BDU 26080.61194623  .00000157  00000+0  16851-3 0  9991
2 31026  98.7881  14.6727 0133479 275.5938 210.4968 13.83452873693932
FENGYUN 1C DEB          
1 31028U 99025BDW 26070.02547564  .00000471  00000+0  37646-3 0  9997
2 31028  98.7120   1.1743 0166209  52.4953 309.1185 13.89141465632292
FENGYUN 1C DEB          
1 31029U 99025BDX 26079.20878275  .00000617  00000+0  22475-3 0  9999
2 31029  98.8524 343.5233 0089219 146.8892   5.0479 14.34554564991930
FENGYUN 1C DEB          
1 31030U 99025BDY 26080.43169719  .00001774  00000+0  78649-3 0  9993
2 31030  98.7527 146.9951 0029068 155.0137 227.5705 14.24123337981094
FENGYUN 1C DEB          
1 31031U 99025BDZ 26073.03041847  .00000925  00000+0  44502-3 0  9991
2 31031  99.0740 357.5807 0027410 288.9245 135.5689 14.21187937981510
FENGYUN 1C DEB          
1 31036U 99025BEE 26079.28563435  .00000441  00000+0  11607-3 0  9994
2 31036  98.9162 196.2721 0137446 332.0540  55.9603 14.49293192587204
FENGYUN 1C DEB          
1 31040U 99025BEJ 26080.45004353  .00000595  00000+0  30694-3 0  9996
2 31040  98.6685  72.8646 0061197 271.3443 242.0144 14.17838169981051
FENGYUN 1C DEB          
1 31041U 99025BEK 26080.54307909  .00004723  00000+0  22104-2 0  9993
2 31041  99.1914 117.7900 0085827  43.4726 317.3173 14.18807706968904
FENGYUN 1C DEB          
1 31043U 99025BEM 26080.54994037  .00000582  00000+0  35994-3 0  9990
2 31043  98.7589 100.5458 0042587  84.6780  66.5625 14.08609414973782
FENGYUN 1C DEB          
1 31047U 99025BER 26080.46123113  .00000691  00000+0  38497-3 0  9996
2 31047  98.7058  80.2960 0024507 258.2428 255.6753 14.14028026977541
FENGYUN 1C DEB          
1 31049U 99025BET 26072.29735117  .00000418  00000+0  28632-3 0  9990
2 31049  98.8037  85.2208 0050278 235.6323 124.0083 14.04368778623866
FENGYUN 1C DEB          
1 31053U 99025BEX 26075.15183548  .00003379  00000+0  24779-2 0  9994
2 31053  98.7975 195.7025 0307073 204.7440 153.8716 13.76311365947613
FENGYUN 1C DEB          
1 31054U 99025BEY 26079.78400413  .00000234  00000+0  15039-3 0  9998
2 31054  98.6879  94.8107 0009442 197.5572 337.2356 14.12237621981473
FENGYUN 1C DEB          
1 31055U 99025BEZ 26079.59401338  .00000416  00000+0  25714-3 0  9998
2 31055  98.7475 113.2380 0024378 358.0442 155.3315 14.10505931975018
FENGYUN 1C DEB          
1 31057U 99025BFB 26079.37509353  .00004146  00000+0  46712-3 0  9997
2 31057  99.2403 138.5945 0133411 307.2236  51.6858 14.81066248633977
FENGYUN 1C DEB          
1 31058U 99025BFC 26079.38209045  .00004371  00000+0  56632-3 0  9996
2 31058  99.5782  51.8099 0090308 165.1085 195.2813 14.78675958  9353
